[{"OBJECT_NAME":"COSMOS 2538","OBJECT_ID":"2019-039D","EPOCH":"2026-03-09T23:22:28.343424","MEAN_MOTION":15.19536029,"ECCENTRICITY":0.00437345,"INCLINATION":97.5929,"RA_OF_ASC_NODE":147.7512,"ARG_OF_PERICENTER":31.8471,"MEAN_ANOMALY":328.5393,"EPHEMERIS_TYPE":0,"CLASSIFICATION_TYPE":"U","NORAD_CAT_ID":44424,"ELEMENT_SET_NO":999,"REV_AT_EPOCH":36483,"BSTAR":0.00035711669,"MEAN_MOTION_DOT":7.713e-5,"MEAN_MOTION_DDOT":0},{"OBJECT_NAME":"STARLINK-34114","OBJECT_ID":"2025-095R","EPOCH":"2026-03-08T09:10:51.516480","MEAN_MOTION":15.2760225,"ECCENTRICITY":8.94e-5,"INCLINATION":43.0021,"RA_OF_ASC_NODE":183.9699,"ARG_OF_PERICENTER":231.7805,"MEAN_ANOMALY":128.2966,"EPHEMERIS_TYPE":0,"CLASSIFICATION_TYPE":"U","NORAD_CAT_ID":63905,"ELEMENT_SET_NO":999,"REV_AT_EPOCH":4757,"BSTAR":0.0013938171,"MEAN_MOTION_DOT":0.00038318,"MEAN_MOTION_DDOT":0}]
